{"type": "FeatureCollection", "features": [{"type": "Feature", "properties": {"norad_id": 25590, "name": "COSMOS 2361", "group": "musson", "lat": -25.284066561097095, "lon": -22.233781586602102, "alt_km": 989.8767745008772, "timestamp": "2025-12-16T17:51:11.201072+00:00", "meta": {"OBJECT_NAME": "COSMOS 2361", "OBJECT_ID": "1998-076A", "EPOCH": "2025-12-15T23:01:27.638688", "MEAN_MOTION": 13.73217889, "ECCENTRICITY": 0.00300759, "INCLINATION": 82.934, "RA_OF_ASC_NODE": 341.7049, "ARG_OF_PERICENTER": 256.2718, "MEAN_ANOMALY": 161.7871, "EPHEMERIS_TYPE": 0, "CLASSIFICATION_TYPE": "U", "NORAD_CAT_ID": 25590, "ELEMENT_SET_NO": 999, "REV_AT_EPOCH": 35155, "BSTAR": 7.1702522e-05, "MEAN_MOTION_DOT": 8.1e-07, "MEAN_MOTION_DDOT": 0}, "tle": {"line1": "1 25590U 98076A   25349.95934767  .00000081  00000+0  71703-4 0  9994", "line2": "2 25590  82.9340 341.7049 0030075 256.2718 161.7871 13.73217889351552"}}, "geometry": {"type": "Point", "coordinates": [-22.233781586602102, -25.284066561097095]}}, {"type": "Feature", "properties": {"norad_id": 26818, "name": "COSMOS 2378", "group": "musson", "lat": 59.14839285599526, "lon": 8.751719349627532, "alt_km": 995.5399354518022, "timestamp": "2025-12-16T17:51:11.201093+00:00", "meta": {"OBJECT_NAME": "COSMOS 2378", "OBJECT_ID": "2001-023A", "EPOCH": "2025-12-15T19:41:11.148288", "MEAN_MOTION": 13.74142207, "ECCENTRICITY": 0.00325815, "INCLINATION": 82.9272, "RA_OF_ASC_NODE": 357.4406, "ARG_OF_PERICENTER": 196.1914, "MEAN_ANOMALY": 337.571, "EPHEMERIS_TYPE": 0, "CLASSIFICATION_TYPE": "U", "NORAD_CAT_ID": 26818, "ELEMENT_SET_NO": 999, "REV_AT_EPOCH": 22965, "BSTAR": 5.1347142e-05, "MEAN_MOTION_DOT": 6.4e-07, "MEAN_MOTION_DDOT": 0}, "tle": {"line1": "1 26818U 01023A   25349.82026792  .00000064  00000+0  51347-4 0  9993", "line2": "2 26818  82.9272 357.4406 0032581 196.1914 337.5710 13.74142207229657"}}, "geometry": {"type": "Point", "coordinates": [8.751719349627532, 59.14839285599526]}}, {"type": "Feature", "properties": {"norad_id": 27436, "name": "COSMOS 2389", "group": "musson", "lat": -76.73982351205927, "lon": -87.65267607871948, "alt_km": 1010.1776938647463, "timestamp": "2025-12-16T17:51:11.201106+00:00", "meta": {"OBJECT_NAME": "COSMOS 2389", "OBJECT_ID": "2002-026A", "EPOCH": "2025-12-15T23:20:17.340288", "MEAN_MOTION": 13.75155042, "ECCENTRICITY": 0.004755, "INCLINATION": 82.9505, "RA_OF_ASC_NODE": 304.5915, "ARG_OF_PERICENTER": 51.9667, "MEAN_ANOMALY": 12.754, "EPHEMERIS_TYPE": 0, "CLASSIFICATION_TYPE": "U", "NORAD_CAT_ID": 27436, "ELEMENT_SET_NO": 999, "REV_AT_EPOCH": 18193, "BSTAR": 5.3997368e-05, "MEAN_MOTION_DOT": 6.8e-07, "MEAN_MOTION_DDOT": 0}, "tle": {"line1": "1 27436U 02026A   25349.97242292  .00000068  00000+0  53997-4 0  9992", "line2": "2 27436  82.9505 304.5915 0047550  51.9667  12.7540 13.75155042181939"}}, "geometry": {"type": "Point", "coordinates": [-87.65267607871948, -76.73982351205927]}}, {"type": "Feature", "properties": {"norad_id": 27818, "name": "COSMOS 2398", "group": "musson", "lat": -14.890226023146763, "lon": 91.63383408584205, "alt_km": 997.1956171046095, "timestamp": "2025-12-16T17:51:11.201118+00:00", "meta": {"OBJECT_NAME": "COSMOS 2398", "OBJECT_ID": "2003-023A", "EPOCH": "2025-12-15T22:00:22.338144", "MEAN_MOTION": 13.72386015, "ECCENTRICITY": 0.0032675, "INCLINATION": 82.9484, "RA_OF_ASC_NODE": 270.3571, "ARG_OF_PERICENTER": 103.2951, "MEAN_ANOMALY": 327.878, "EPHEMERIS_TYPE": 0, "CLASSIFICATION_TYPE": "U", "NORAD_CAT_ID": 27818, "ELEMENT_SET_NO": 999, "REV_AT_EPOCH": 12860, "BSTAR": 3.6432976e-05, "MEAN_MOTION_DOT": 4.9e-07, "MEAN_MOTION_DDOT": 0}, "tle": {"line1": "1 27818U 03023A   25349.91692521  .00000049  00000+0  36433-4 0  9997", "line2": "2 27818  82.9484 270.3571 0032675 103.2951 327.8780 13.72386015128600"}}, "geometry": {"type": "Point", "coordinates": [91.63383408584205, -14.890226023146763]}}, {"type": "Feature", "properties": {"norad_id": 28380, "name": "COSMOS 2407", "group": "musson", "lat": 82.38515916410945, "lon": -82.51610438916094, "alt_km": 947.9226765757221, "timestamp": "2025-12-16T17:51:11.201129+00:00", "meta": {"OBJECT_NAME": "COSMOS 2407", "OBJECT_ID": "2004-028A", "EPOCH": "2025-12-15T20:33:17.368128", "MEAN_MOTION": 13.76313998, "ECCENTRICITY": 0.00402117, "INCLINATION": 82.9602, "RA_OF_ASC_NODE": 210.5852, "ARG_OF_PERICENTER": 46.3771, "MEAN_ANOMALY": 325.9261, "EPHEMERIS_TYPE": 0, "CLASSIFICATION_TYPE": "U", "NORAD_CAT_ID": 28380, "ELEMENT_SET_NO": 999, "REV_AT_EPOCH": 7466, "BSTAR": 6.3752134e-05, "MEAN_MOTION_DOT": 7.8e-07, "MEAN_MOTION_DDOT": 0}, "tle": {"line1": "1 28380U 04028A   25349.85645102  .00000078  00000+0  63752-4 0  9990", "line2": "2 28380  82.9602 210.5852 0040211  46.3771 325.9261 13.76313998 74660"}}, "geometry": {"type": "Point", "coordinates": [-82.51610438916094, 82.38515916410945]}}, {"type": "Feature", "properties": {"norad_id": 28521, "name": "COSMOS 2414", "group": "musson", "lat": 22.40885483318368, "lon": -1.2934435614258433, "alt_km": 909.2737236237899, "timestamp": "2025-12-16T17:51:11.201140+00:00", "meta": {"OBJECT_NAME": "COSMOS 2414", "OBJECT_ID": "2005-002A", "EPOCH": "2025-12-15T22:04:05.071296", "MEAN_MOTION": 13.87903398, "ECCENTRICITY": 0.00410678, "INCLINATION": 82.9489, "RA_OF_ASC_NODE": 182.2554, "ARG_OF_PERICENTER": 130.806, "MEAN_ANOMALY": 229.6678, "EPHEMERIS_TYPE": 0, "CLASSIFICATION_TYPE": "U", "NORAD_CAT_ID": 28521, "ELEMENT_SET_NO": 999, "REV_AT_EPOCH": 5839, "BSTAR": 7.0644113e-05, "MEAN_MOTION_DOT": 1.01e-06, "MEAN_MOTION_DDOT": 0}, "tle": {"line1": "1 28521U 05002A   25349.91950314  .00000101  00000+0  70644-4 0  9996", "line2": "2 28521  82.9489 182.2554 0041067 130.8060 229.6678 13.87903398 58399"}}, "geometry": {"type": "Point", "coordinates": [-1.2934435614258433, 22.40885483318368]}}, {"type": "Feature", "properties": {"norad_id": 32052, "name": "COSMOS 2429", "group": "musson", "lat": 70.7631715645851, "lon": 139.68166745211118, "alt_km": 969.7325192336239, "timestamp": "2025-12-16T17:51:11.201151+00:00", "meta": {"OBJECT_NAME": "COSMOS 2429", "OBJECT_ID": "2007-038A", "EPOCH": "2025-12-15T22:07:28.659072", "MEAN_MOTION": 13.75149724, "ECCENTRICITY": 0.00390712, "INCLINATION": 82.9804, "RA_OF_ASC_NODE": 340.9627, "ARG_OF_PERICENTER": 29.1624, "MEAN_ANOMALY": 331.1702, "EPHEMERIS_TYPE": 0, "CLASSIFICATION_TYPE": "U", "NORAD_CAT_ID": 32052, "ELEMENT_SET_NO": 999, "REV_AT_EPOCH": 91646, "BSTAR": 6.7482628e-05, "MEAN_MOTION_DOT": 8e-07, "MEAN_MOTION_DDOT": 0}, "tle": {"line1": "1 32052U 07038A   25349.92185948  .00000080  00000+0  67483-4 0  9998", "line2": "2 32052  82.9804 340.9627 0039071  29.1624 331.1702 13.75149724916466"}}, "geometry": {"type": "Point", "coordinates": [139.68166745211118, 70.7631715645851]}}, {"type": "Feature", "properties": {"norad_id": 35635, "name": "COSMOS 2454", "group": "musson", "lat": -55.888923885501896, "lon": -3.871859646896797, "alt_km": 950.7358240654294, "timestamp": "2025-12-16T17:51:11.201162+00:00", "meta": {"OBJECT_NAME": "COSMOS 2454", "OBJECT_ID": "2009-039A", "EPOCH": "2025-12-15T22:15:24.335136", "MEAN_MOTION": 13.89929031, "ECCENTRICITY": 0.00203829, "INCLINATION": 82.9554, "RA_OF_ASC_NODE": 166.2285, "ARG_OF_PERICENTER": 65.2403, "MEAN_ANOMALY": 47.9084, "EPHEMERIS_TYPE": 0, "CLASSIFICATION_TYPE": "U", "NORAD_CAT_ID": 35635, "ELEMENT_SET_NO": 999, "REV_AT_EPOCH": 83194, "BSTAR": 6.0235159e-05, "MEAN_MOTION_DOT": 9e-07, "MEAN_MOTION_DDOT": 0}, "tle": {"line1": "1 35635U 09039A   25349.92736499  .00000090  00000+0  60235-4 0  9993", "line2": "2 35635  82.9554 166.2285 0020382  65.2403  47.9084 13.89929031831944"}}, "geometry": {"type": "Point", "coordinates": [-3.871859646896797, -55.888923885501896]}}, {"type": "Feature", "properties": {"norad_id": 36519, "name": "COSMOS 2463", "group": "musson", "lat": 13.709299432494625, "lon": 25.49759998905542, "alt_km": 997.7862803244761, "timestamp": "2025-12-16T17:51:11.201173+00:00", "meta": {"OBJECT_NAME": "COSMOS 2463", "OBJECT_ID": "2010-017A", "EPOCH": "2025-12-15T19:52:32.898720", "MEAN_MOTION": 13.71649378, "ECCENTRICITY": 0.00347441, "INCLINATION": 82.961, "RA_OF_ASC_NODE": 24.4431, "ARG_OF_PERICENTER": 279.1449, "MEAN_ANOMALY": 255.1525, "EPHEMERIS_TYPE": 0, "CLASSIFICATION_TYPE": "U", "NORAD_CAT_ID": 36519, "ELEMENT_SET_NO": 999, "REV_AT_EPOCH": 78279, "BSTAR": 5.1047986e-05, "MEAN_MOTION_DOT": 6.1e-07, "MEAN_MOTION_DDOT": 0}, "tle": {"line1": "1 36519U 10017A   25349.82815855  .00000061  00000+0  51048-4 0  9996", "line2": "2 36519  82.9610  24.4431 0034744 279.1449 255.1525 13.71649378782795"}}, "geometry": {"type": "Point", "coordinates": [25.49759998905542, 13.709299432494625]}}]}